{
  "norad_id": 57930,
  "name": "STARLINK-30476",
  "history": [
    {
      "epoch": "2026-03-28T14:45:12.601152Z",
      "apogee_km": 458.98194390579647,
      "perigee_km": 433.155055771108,
      "latitude_deg": -1.0079035352123455e-05,
      "longitude_deg": 115.82544390615398,
      "height_km": 433.02897204126197,
      "semi_major_axis_km": 6824.205499838452,
      "eccentricity": 0.0018923,
      "inclination_deg": 42.994,
      "raan_deg": 163.1606,
      "arg_perigee_deg": 7.1837,
      "mean_anomaly_deg": 352.9287,
      "mean_motion_rev_day": 15.40013817
    }
  ]
}