{"fetched_at":"2026-03-30T13:17:50Z","count":15418,"tles":[{"name":"STARLINK-30476","line1":"1 57930U 23147T   26087.61472918  .00109563  00000+0  26367-2 0  9991","line2":"2 57930  42.9940 163.1606 0018923   7.1837 352.9287 15.40013817140131","category":"Starlink"}]}